{
  "type": "FeatureCollection",
  "name": "Demo_Cadastral_Survey_Records",
  "crs": {
    "type": "name",
    "properties": {
      "name": "urn:ogc:def:crs:OGC:1.3:CRS84 (Pixel Coordinate Space)"
    }
  },
  "metadata": {
    "source": "Demo cadastral dataset — synthetic benchmark records for prototype evaluation",
    "jurisdiction": "Urban Cadastral Survey Division (Demo)",
    "survey_year": 2020,
    "coordinate_system": "Normalized Pixel Space (800x600 reference)",
    "legal_notice": "Synthetic benchmark dataset generated exclusively for prototype testing and spatial verification demonstration."
  },
  "features": [
    {
      "type": "Feature",
      "id": "P-001",
      "properties": {
        "cadastral_id": "P-001",
        "owner_reference": "Property Plot 101",
        "registered_area_px": 22500.0,
        "land_use": "Residential",
        "description": "Top-Left Urban Plot (High Match benchmark)"
      },
      "geometry": {
        "type": "Polygon",
        "coordinates": [
          [
            [50.0, 50.0],
            [200.0, 50.0],
            [200.0, 200.0],
            [50.0, 200.0],
            [50.0, 50.0]
          ]
        ]
      }
    },
    {
      "type": "Feature",
      "id": "P-002",
      "properties": {
        "cadastral_id": "P-002",
        "owner_reference": "Property Plot 102",
        "registered_area_px": 22500.0,
        "land_use": "Commercial",
        "description": "Top-Right Urban Plot (Potential Encroachment benchmark - 4,500 px² protrusion)"
      },
      "geometry": {
        "type": "Polygon",
        "coordinates": [
          [
            [250.0, 50.0],
            [400.0, 50.0],
            [400.0, 200.0],
            [250.0, 200.0],
            [250.0, 50.0]
          ]
        ]
      }
    },
    {
      "type": "Feature",
      "id": "P-003",
      "properties": {
        "cadastral_id": "P-003",
        "owner_reference": "Property Plot 103",
        "registered_area_px": 22500.0,
        "land_use": "Residential",
        "description": "Bottom-Left Plot (Potential Encroachment benchmark - 7,500 px² lateral protrusion)"
      },
      "geometry": {
        "type": "Polygon",
        "coordinates": [
          [
            [50.0, 250.0],
            [200.0, 250.0],
            [200.0, 400.0],
            [50.0, 400.0],
            [50.0, 250.0]
          ]
        ]
      }
    },
    {
      "type": "Feature",
      "id": "P-004",
      "properties": {
        "cadastral_id": "P-004",
        "owner_reference": "Property Plot 104",
        "registered_area_px": 22500.0,
        "land_use": "Industrial",
        "description": "Bottom-Right Plot (Significant Boundary Mismatch benchmark)"
      },
      "geometry": {
        "type": "Polygon",
        "coordinates": [
          [
            [250.0, 250.0],
            [400.0, 250.0],
            [400.0, 400.0],
            [250.0, 400.0],
            [250.0, 250.0]
          ]
        ]
      }
    },
    {
      "type": "Feature",
      "id": "P-005",
      "properties": {
        "cadastral_id": "P-005",
        "owner_reference": "Vacant Plot 105",
        "registered_area_px": 12000.0,
        "land_use": "Agricultural/Open",
        "description": "Historical Record Plot (No active AI structure detected benchmark)"
      },
      "geometry": {
        "type": "Polygon",
        "coordinates": [
          [
            [450.0, 50.0],
            [530.0, 50.0],
            [530.0, 200.0],
            [450.0, 200.0],
            [450.0, 50.0]
          ]
        ]
      }
    }
  ]
}
